BEIDOU-3S IGSO-1S       
1 40549U 15019A   26183.80025122 -.00000190  00000+0  00000+0 0  9997
2 40549  49.1798 295.2769 0076860 219.1125 144.2493  1.00680073 41232
NAVSTAR 74 (USA 262)    
1 40730U 15033A   26185.67196386 -.00000008  00000+0  00000+0 0  9991
2 40730  53.9691 266.3653 0115213  30.2668 330.4655  2.00555354 80348
BEIDOU-3S M2S           
1 40748U 15037A   26185.50576429 -.00000058  00000+0  00000+0 0  9991
2 40748  54.8539 301.4503 0009059 257.7221 102.2005  1.86232509 74449
BEIDOU-3S M1S           
1 40749U 15037B   26185.17416965 -.00000058  00000+0  00000+0 0  9993
2 40749  54.8513 301.4491 0002994  63.1742 296.8797  1.86254939 74445
GSAT0206 (GALILEO 10)   
1 40890U 15045B   26184.88161185  .00000074  00000+0  00000+0 0  9994
2 40890  54.9411 221.1433 0001956 327.0241  33.0412  1.70473649 67325
BEIDOU-3S IGSO-2S       
1 40938U 15053A   26185.85304073 -.00000105  00000+0  00000+0 0  9995
2 40938  49.1939 258.5724 0065737 193.1388 232.3570  1.00255661 39533
NAVSTAR 75 (USA 265)    
1 41019U 15062A   26185.22871142 -.00000056  00000+0  00000+0 0  9998
2 41019  56.9708  30.1551 0112434 230.9350 128.1122  2.00567024 78170
GSAT-15                 
1 41028U 15065A   26183.70805642 -.00000247  00000+0  00000+0 0  9996
2 41028   0.0419 250.8690 0004439 191.0709 187.1953  1.00270279 38955
GSAT0209 (GALILEO 12)   
1 41174U 15079A   26185.04982572 -.00000002  00000+0  00000+0 0  9999
2 41174  55.8364 100.7995 0005220 344.5469  15.4534  1.70473879 65060
GSAT0208 (GALILEO 11)   
1 41175U 15079B   26182.92381336 -.00000013  00000+0  00000+0 0  9997
2 41175  55.8336 100.8547 0004614 354.4374   5.5610  1.70473736 65444
IRNSS-1E                
1 41241U 16003A   26180.82733131 -.00000310  00000+0  00000+0 0  9990
2 41241  33.2608  59.5670 0019200 178.7998  89.1855  1.00272765 38208
NAVSTAR 76 (USA 266)    
1 41328U 16007A   26184.82206197 -.00000008  00000+0  00000+0 0  9995
2 41328  55.5329  88.8003 0096059 247.4210 111.5990  2.00575935 76178
COSMOS 2514 [GLONASS-M] 
1 41330U 16008A   26184.70928353 -.00000044  00000+0  00000+0 0  9991
2 41330  65.0109 312.4399 0011921 199.8976 160.0650  2.13102677 80979
BEIDOU-2 IGSO-6         
1 41434U 16021A   26177.11016981 -.00000145  00000+0  00000+0 0  9995
2 41434  60.2385  37.9495 0057558 231.0163 137.2672  1.00258926 37578
IRNSS-1G                
1 41469U 16027A   26185.67558775 -.00000323  00000+0  00000+0 0  9999
2 41469   5.2377  97.0713 0005809   7.0029 191.4017  1.00278584 37353
GSAT0211 (GALILEO 14)   
1 41549U 16030A   26185.39390707  .00000074  00000+0  00000+0 0  9992
2 41549  55.0914 221.2214 0003119 320.4697  39.5831  1.70473887 62965
GSAT0210 (GALILEO 13)   
1 41550U 16030B   26184.47800542  .00000074  00000+0  00000+0 0  9995
2 41550  55.0896 221.2446 0008960 258.8551 101.1239  1.70473811 62948
BEIDOU-2 G7             
1 41586U 16037A   26185.96746133 -.00000341  00000+0  00000+0 0  9999
2 41586   1.7614  69.4488 0006678   4.8186 307.5029  1.00268116  7062
EUTELSAT 117 WEST B     
1 41589U 16038B   26183.63071992  .00000000  00000+0  00000+0 0  9990
2 41589   0.0082 201.6637 0000328 106.1903  82.8636  1.00268475 36811
GSAT0207 (GALILEO 15)   
1 41859U 16069A   26177.71738502 -.00000038  00000+0  00000+0 0  9995
2 41859  55.5042 100.8225 0005006 333.0982  26.8500  1.70473700 59562
GSAT0212 (GALILEO 16)   
1 41860U 16069B   26184.02330525 -.00000007  00000+0  00000+0 0  9998
2 41860  55.5054 100.6432 0004355   5.9747 354.0415  1.70473781 59925
GSAT0213 (GALILEO 17)   
1 41861U 16069C   26179.11118849 -.00000034  00000+0  00000+0 0  9996
2 41861  55.5047 100.7870 0004537 315.9585  43.9839  1.70474290 59707
GSAT0214 (GALILEO 18)   
1 41862U 16069D   26182.19038912 -.00000017  00000+0  00000+0 0  9992
2 41862  55.5050 100.6945 0003556 328.0660  31.9108  1.70473880 59882
SES-15                  
1 42709U 17026A   26183.69960315  .00000071  00000+0  00000+0 0  9993
2 42709   0.0224 333.2991 0000649 116.3241 313.8103  1.00268893  7585
QZS-2 (MICHIBIKI-2)     
1 42738U 17028A   26184.47336514 -.00000107  00000+0  00000+0 0  9993
2 42738  39.4029 242.9137 0758568 269.4566  81.7440  1.00279734  7787
QZS-3 (MICHIBIKI-3)     
1 42917U 17048A   26185.88899691 -.00000335  00000+0  00000+0 0  9993
2 42917   0.0791 130.7834 0002129 332.7344 266.4071  1.00267468 32430
COSMOS 2522 [GLONASS-M] 
1 42939U 17055A   26184.54697543  .00000087  00000+0  00000+0 0  9992
2 42939  64.0801 191.3275 0010920 240.7350 119.1829  2.13102029 68329
QZS-4 (MICHIBIKI-4)     
1 42965U 17062A   26185.31912128 -.00000310  00000+0  00000+0 0  9994
2 42965  40.0992 343.2689 0746962 268.3445 284.0389  1.00294227 31974
BEIDOU-3 M1             
1 43001U 17069A   26184.24174458 -.00000036  00000+0  00000+0 0  9995
2 43001  56.7055  62.5561 0009680 326.7179  33.2911  1.86231596 58903
BEIDOU-3 M2             
1 43002U 17069B   26182.56966369 -.00000040  00000+0  00000+0 0  9994
2 43002  56.7035  62.6467 0008730 353.7874   6.2692  1.86230997 58860
GSAT0215 (GALILEO 19)   
1 43055U 17079A   26183.26668362  .00000074  00000+0  00000+0 0  9999
2 43055  55.0700 221.0915 0004952 269.1810  90.8482  1.70474379 53240
